{"type": "Feature", "properties": {"source": "Natural Earth 1:10m coastline", "clip_bbox": [[9.066, 40.743, 9.839, 41.635999999999996]]}, "geometry": {"type": "MultiLineString", "coordinates": [[[9.710848675675676, 40.743], [9.710297, 40.745592], [9.703949, 40.759426], [9.675792, 40.788642], [9.66977, 40.801459], [9.668793, 40.790351], [9.657888, 40.799872], [9.661794, 40.809027], [9.67449, 40.81391], [9.689789, 40.810777], [9.689789, 40.817043], [9.681, 40.829779], [9.691091, 40.836249], [9.723969, 40.844916], [9.710948, 40.846869], [9.699392, 40.850043], [9.689789, 40.855862], [9.683116, 40.865424], [9.671723, 40.85871], [9.663259, 40.858222], [9.657725, 40.863959], [9.655772, 40.876044], [9.650076, 40.879462], [9.614106, 40.893378], [9.614106, 40.899604], [9.623871, 40.900702], [9.631521, 40.904853], [9.637218, 40.911566], [9.6421, 40.92064], [9.622569, 40.923774], [9.607677, 40.917873], [9.592784, 40.909898], [9.573253, 40.906399], [9.567231, 40.908393], [9.549327, 40.917222], [9.539073, 40.92064], [9.528982, 40.919257], [9.52003, 40.915025], [9.511974, 40.915188], [9.504242, 40.926907], [9.512543, 40.927965], [9.511241, 40.929389], [9.511892, 40.934312], [9.557465, 40.93122], [9.571137, 40.934882], [9.566417, 40.948635], [9.578868, 40.961982], [9.58253, 40.979926], [9.587576, 40.995795], [9.604259, 41.002631], [9.61964, 40.998765], [9.635997, 40.992377], [9.651215, 40.991116], [9.662608, 41.002631], [9.644298, 41.011664], [9.615733, 41.019599], [9.588145, 41.020697], [9.573253, 41.009467], [9.568614, 41.009508], [9.565684, 41.010932], [9.559581, 41.016262], [9.558279, 41.013617], [9.558604, 41.011054], [9.557791, 41.009426], [9.552745, 41.009467], [9.557628, 41.025051], [9.55421, 41.034613], [9.543142, 41.036933], [9.52475, 41.030504], [9.532237, 41.016262], [9.511892, 41.016262], [9.521251, 41.031684], [9.539073, 41.091986], [9.540782, 41.087348], [9.543793, 41.082506], [9.545909, 41.077704], [9.556407, 41.087836], [9.562266, 41.097113], [9.565115, 41.107123], [9.566417, 41.11933], [9.562999, 41.121243], [9.561778, 41.12108], [9.561209, 41.121812], [9.559581, 41.126125], [9.552745, 41.126125], [9.546153, 41.120917], [9.540782, 41.12287], [9.534353, 41.128119], [9.52475, 41.132961], [9.532237, 41.140367], [9.523936, 41.149726], [9.518403, 41.148668], [9.513927, 41.1435], [9.508067, 41.140367], [9.494395, 41.14232], [9.481456, 41.145575], [9.469086, 41.146186], [9.456554, 41.140367], [9.462413, 41.1376], [9.465099, 41.134426], [9.466807, 41.130683], [9.470063, 41.126125], [9.46046, 41.12051], [9.454112, 41.111965], [9.442882, 41.091986], [9.436778, 41.115383], [9.437022, 41.125434], [9.442882, 41.132961], [9.432791, 41.140774], [9.426606, 41.149237], [9.420177, 41.15644], [9.408702, 41.160305], [9.41212, 41.164537], [9.414317, 41.168199], [9.417003, 41.171454], [9.422374, 41.174506], [9.422374, 41.180732], [9.412283, 41.180732], [9.404063, 41.181708], [9.396658, 41.183905], [9.388194, 41.187567], [9.388194, 41.180732], [9.352061, 41.207261], [9.335216, 41.211656], [9.333018, 41.187567], [9.31658, 41.196479], [9.312511, 41.201239], [9.305431, 41.197943], [9.299571, 41.196479], [9.28533, 41.195014], [9.28533, 41.201239], [9.288341, 41.205756], [9.289317, 41.208726], [9.28533, 41.221747], [9.278331, 41.221747], [9.274913, 41.212388], [9.273611, 41.205146], [9.274669, 41.19953], [9.278331, 41.195014], [9.267426, 41.201972], [9.268077, 41.23664], [9.257823, 41.249661], [9.246918, 41.247748], [9.238292, 41.248847], [9.232677, 41.253567], [9.230642, 41.262641], [9.212413, 41.255805], [9.189952, 41.251125], [9.171072, 41.242906], [9.162852, 41.225409], [9.163422, 41.184149], [9.157563, 41.168891], [9.141856, 41.152777], [9.13559, 41.160305], [9.107758, 41.139472], [9.093028, 41.135199], [9.066, 41.132686525762324]], [[9.066, 41.47816109698225], [9.068207, 41.479478], [9.079845, 41.482367], [9.079845, 41.476142], [9.06658, 41.4619], [9.080903, 41.453192], [9.105154, 41.445502], [9.121349, 41.434638], [9.112153, 41.432563], [9.10727, 41.429267], [9.096446, 41.40351], [9.122244, 41.394965], [9.153331, 41.391343], [9.169119, 41.386176], [9.193858, 41.369127], [9.206716, 41.365912], [9.223155, 41.372504], [9.230154, 41.380927], [9.23878, 41.395901], [9.246593, 41.412909], [9.250336, 41.427802], [9.237966, 41.422268], [9.222016, 41.410956], [9.210704, 41.407294], [9.210704, 41.41352], [9.219981, 41.419623], [9.223318, 41.427314], [9.220063, 41.435045], [9.210704, 41.440863], [9.210704, 41.448228], [9.228038, 41.450019], [9.255219, 41.463609], [9.270844, 41.468736], [9.264659, 41.476142], [9.27475, 41.482856], [9.279145, 41.491645], [9.276215, 41.499416], [9.264659, 41.502875], [9.268728, 41.509955], [9.269867, 41.516791], [9.268728, 41.523749], [9.264659, 41.530829], [9.281993, 41.533271], [9.292166, 41.542914], [9.299653, 41.55329], [9.309093, 41.558173], [9.326671, 41.561103], [9.341075, 41.569281], [9.350597, 41.581204], [9.354177, 41.595404], [9.345063, 41.604478], [9.325043, 41.601955], [9.292166, 41.59162], [9.278575, 41.598375], [9.284434, 41.607652], [9.293956, 41.617621], [9.292166, 41.62641], [9.303722, 41.627834], [9.318207, 41.627143], [9.333263, 41.624457], [9.34669, 41.619574], [9.342133, 41.63467], [9.342860079207918, 41.635999999999996]], [[9.474783, 41.23607], [9.468028, 41.241116], [9.459972, 41.242377], [9.453868, 41.233954], [9.446462, 41.220404], [9.443533, 41.211493], [9.447765, 41.205064], [9.437022, 41.18594], [9.441661, 41.183051], [9.448741, 41.185533], [9.456391, 41.18065], [9.464366, 41.172675], [9.470388, 41.172105], [9.474864, 41.179267], [9.474376, 41.184272], [9.471039, 41.189602], [9.479259, 41.216946], [9.479503, 41.224189], [9.478363, 41.228461], [9.474783, 41.23607]], [[9.430919, 41.224799], [9.429047, 41.229397], [9.430431, 41.237779], [9.430512, 41.246283], [9.427419, 41.254096], [9.421886, 41.260891], [9.414236, 41.262437], [9.40797, 41.258124], [9.402192, 41.257514], [9.39796, 41.256049], [9.396251, 41.247748], [9.391856, 41.240709], [9.384939, 41.236518], [9.377615, 41.233832], [9.373057, 41.229885], [9.373057, 41.22191], [9.376964, 41.213324], [9.395274, 41.210598], [9.435313, 41.217027], [9.434255, 41.220608], [9.430919, 41.224799]]]}}