{"type": "Feature", "properties": {"source": "Natural Earth 1:10m coastline", "clip_bbox": [[20.602, 38.444, 20.973, 39.042]]}, "geometry": {"type": "MultiLineString", "coordinates": [[[20.973, 38.67260959357326], [20.940115, 38.672919], [20.926606, 38.676744], [20.914399, 38.686225], [20.9074, 38.698554], [20.883149, 38.779364], [20.873383, 38.795315], [20.859874, 38.803534], [20.845225, 38.799628], [20.830577, 38.787787], [20.818533, 38.773505], [20.811371, 38.762519], [20.804047, 38.773383], [20.798106, 38.771552], [20.79184, 38.766547], [20.784028, 38.768134], [20.773285, 38.760932], [20.769298, 38.765041], [20.767426, 38.774115], [20.763682, 38.781724], [20.72934, 38.803534], [20.72934, 38.80976], [20.73699, 38.822577], [20.741466, 38.840888], [20.74936, 38.857245], [20.767345, 38.864325], [20.788829, 38.863715], [20.800304, 38.864569], [20.805186, 38.867743], [20.801931, 38.874091], [20.7942, 38.879788], [20.785981, 38.883857], [20.764496, 38.891791], [20.756033, 38.906887], [20.75408, 38.924954], [20.757498, 38.94009], [20.769786, 38.95897], [20.775157, 38.951606], [20.781586, 38.935004], [20.797699, 38.926418], [20.817068, 38.921373], [20.835948, 38.9289], [20.849783, 38.943671], [20.859874, 38.960517], [20.86671, 38.960517], [20.869965, 38.952582], [20.871104, 38.947252], [20.870128, 38.943427], [20.86671, 38.94009], [20.8685, 38.938381], [20.871593, 38.936347], [20.872244, 38.932807], [20.86671, 38.926418], [20.886974, 38.926174], [20.903819, 38.928046], [20.915782, 38.936103], [20.920665, 38.954332], [20.927501, 38.954332], [20.937185, 38.944037], [20.947276, 38.94359], [20.959483, 38.946723], [20.973, 38.946826917953246]], [[20.973, 39.03505293192693], [20.969981, 39.037177], [20.965668, 39.039374], [20.953787, 39.034166], [20.944184, 39.03856], [20.941665610532088, 39.042]], [[20.877409802404582, 39.042], [20.882009, 39.041205], [20.886485, 39.036444], [20.8449, 39.036933], [20.858610382724972, 39.042]], [[20.776765008465322, 39.042], [20.776703, 39.041938], [20.768728, 39.037746], [20.761567, 39.032416], [20.757498, 39.021959], [20.743175, 39.029486], [20.743907, 39.019273], [20.745372, 39.014716], [20.74936, 39.013983], [20.757498, 39.015123], [20.803884, 38.985297], [20.823497, 38.977851], [20.8296, 38.970771], [20.831798, 38.96369], [20.828787, 38.960517], [20.820079, 38.962226], [20.802094, 38.970649], [20.772716, 38.978258], [20.766368, 38.977607], [20.757498, 38.974189], [20.757009, 38.969794], [20.746918, 38.957953], [20.735118, 38.9501], [20.72934, 38.957465], [20.726329, 38.966783], [20.719086, 38.973578], [20.712169, 38.979071], [20.708995, 38.984442], [20.707856, 38.990383], [20.705577, 38.993638], [20.703298, 38.995795], [20.702159, 38.998358], [20.704356, 39.00495], [20.709239, 39.008979], [20.713878, 39.011908], [20.715831, 39.015123], [20.70772217687685, 39.042]], [[20.708223921612436, 38.444], [20.708995, 38.446601], [20.69809, 38.452094], [20.68922, 38.457994], [20.678233, 38.461859], [20.661143, 38.460883], [20.668142, 38.470649], [20.674083, 38.485012], [20.671886, 38.497545], [20.65447, 38.501858], [20.644216, 38.478664], [20.635509, 38.472968], [20.619477, 38.481391], [20.614513, 38.467108], [20.621349, 38.458401], [20.632579, 38.452379], [20.640147, 38.446601], [20.6408673147448, 38.444]], [[20.941091, 38.604234], [20.93214, 38.603013], [20.893891, 38.556464], [20.893891, 38.549018], [20.907563, 38.549018], [20.909353, 38.562934], [20.919281, 38.579088], [20.941091, 38.604234]], [[20.602, 38.6266148804464], [20.602306, 38.626776], [20.613617, 38.607001], [20.633311, 38.604234], [20.629242, 38.594875], [20.63087, 38.588324], [20.636974, 38.584662], [20.647634, 38.583808], [20.647634, 38.590033], [20.64088, 38.600572], [20.648936, 38.608588], [20.664806, 38.610907], [20.681651, 38.604234], [20.683116, 38.610012], [20.685313, 38.613267], [20.687185, 38.617255], [20.687836, 38.624742], [20.698253, 38.620347], [20.702159, 38.617906], [20.697439, 38.633734], [20.695323, 38.638414], [20.702159, 38.638414], [20.709483, 38.625678], [20.715994, 38.627021], [20.720714, 38.638414], [20.723888, 38.69245], [20.722504, 38.707261], [20.715505, 38.699123], [20.710785, 38.688056], [20.706065, 38.680406], [20.698741, 38.682807], [20.696951, 38.689846], [20.701508, 38.697984], [20.725108, 38.724677], [20.728852, 38.730618], [20.729747, 38.735826], [20.72934, 38.744574], [20.72755, 38.752143], [20.724457, 38.760403], [20.723888, 38.769965], [20.72934, 38.781724], [20.722911, 38.793158], [20.721934, 38.807359], [20.717784, 38.822699], [20.702159, 38.836982], [20.690196, 38.841376], [20.68865, 38.846503], [20.68629, 38.850084], [20.66391, 38.84101], [20.645274, 38.828192], [20.633311, 38.816555], [20.620291, 38.7956], [20.612153, 38.785834], [20.60255, 38.781724], [20.602, 38.780528417788176]], [[20.94516, 38.652493], [20.921397, 38.648098], [20.903819, 38.642768], [20.888357, 38.628974], [20.870128, 38.603502], [20.867361, 38.592231], [20.870616, 38.582506], [20.878673, 38.584418], [20.886974, 38.59634], [20.898123, 38.606024], [20.906098, 38.609768], [20.914561, 38.612616], [20.929047, 38.61933], [20.941661, 38.627387], [20.952891, 38.638861], [20.951671, 38.649237], [20.94516, 38.652493]], [[20.800955, 38.665269], [20.798839, 38.665717], [20.799815, 38.668769], [20.797618, 38.669989], [20.792735, 38.668647], [20.788422, 38.670844], [20.783051, 38.674994], [20.761974, 38.666083], [20.74643, 38.663479], [20.73699, 38.652167], [20.75172, 38.626044], [20.78712, 38.599799], [20.800059, 38.595445], [20.790701, 38.605211], [20.783214, 38.609361], [20.781586, 38.611884], [20.773285, 38.618476], [20.759613, 38.627387], [20.762869, 38.639106], [20.788585, 38.644721], [20.796641, 38.651068], [20.801931, 38.656684], [20.805349, 38.661933], [20.805024, 38.665676], [20.800955, 38.665269]]]}}